{"fetched_at":"2026-07-21T17:53:31.607Z","source":"https://celestrak.org/NORAD/elements/gp.php?NAME=HULIANWANG&FORMAT=JSON","constellation":"guowang","records":[{"OBJECT_NAME":"HULIANWANG DIGUI-60","OBJECT_ID":"2025-174C","EPOCH":"2026-07-21T06:40:51.750336","CLASSIFICATION_TYPE":"U","MEAN_MOTION":13.24407304,"ECCENTRICITY":0.00018935,"INCLINATION":86.4932,"RA_OF_ASC_NODE":240.4891,"ARG_OF_PERICENTER":102.5779,"MEAN_ANOMALY":257.5567,"EPHEMERIS_TYPE":0,"NORAD_CAT_ID":65166,"ELEMENT_SET_NO":999,"REV_AT_EPOCH":4530,"BSTAR":0.000085677443,"MEAN_MOTION_DOT":5.1e-7,"MEAN_MOTION_DDOT":0},{"OBJECT_NAME":"HULIANWANG DIGUI-61","OBJECT_ID":"2025-174D","EPOCH":"2026-07-21T06:51:45.864000","CLASSIFICATION_TYPE":"U","MEAN_MOTION":13.24407932,"ECCENTRICITY":0.00017075,"INCLINATION":86.4941,"RA_OF_ASC_NODE":240.5204,"ARG_OF_PERICENTER":102.2897,"MEAN_ANOMALY":257.8428,"EPHEMERIS_TYPE":0,"NORAD_CAT_ID":65167,"ELEMENT_SET_NO":999,"REV_AT_EPOCH":4530,"BSTAR":0.000090746178,"MEAN_MOTION_DOT":5.4e-7,"MEAN_MOTION_DDOT":0},{"OBJECT_NAME":"HULIANWANG DIGUI-62","OBJECT_ID":"2025-174E","EPOCH":"2026-07-21T07:02:27.818592","CLASSIFICATION_TYPE":"U","MEAN_MOTION":13.24409523,"ECCENTRICITY":0.00018189,"INCLINATION":86.4883,"RA_OF_ASC_NODE":240.3295,"ARG_OF_PERICENTER":105.5756,"MEAN_ANOMALY":254.5579,"EPHEMERIS_TYPE":0,"NORAD_CAT_ID":65168,"ELEMENT_SET_NO":999,"REV_AT_EPOCH":4530,"BSTAR":0.00007705311,"MEAN_MOTION_DOT":4.8e-7,"MEAN_MOTION_DDOT":0},{"OBJECT_NAME":"HULIANWANG DIGUI-63","OBJECT_ID":"2025-174F","EPOCH":"2026-07-21T05:24:28.973376","CLASSIFICATION_TYPE":"U","MEAN_MOTION":13.24403816,"ECCENTRICITY":0.00017157,"INCLINATION":86.4935,"RA_OF_ASC_NODE":240.5318,"ARG_OF_PERICENTER":106.3108,"MEAN_ANOMALY":253.8215,"EPHEMERIS_TYPE":0,"NORAD_CAT_ID":65169,"ELEMENT_SET_NO":999,"REV_AT_EPOCH":4529,"BSTAR":0.000038469101,"MEAN_MOTION_DOT":3.1e-7,"MEAN_MOTION_DDOT":0},{"OBJECT_NAME":"HULIANWANG DIGUI-64","OBJECT_ID":"2025-174G","EPOCH":"2026-07-21T05:35:34.123776","CLASSIFICATION_TYPE":"U","MEAN_MOTION":13.24407755,"ECCENTRICITY":0.00018817,"INCLINATION":86.4894,"RA_OF_ASC_NODE":240.4,"ARG_OF_PERICENTER":104.6404,"MEAN_ANOMALY":255.4939,"EPHEMERIS_TYPE":0,"NORAD_CAT_ID":65170,"ELEMENT_SET_NO":999,"REV_AT_EPOCH":4529,"BSTAR":-0.000003321647,"MEAN_MOTION_DOT":1.3e-7,"MEAN_MOTION_DDOT":0},{"OBJECT_NAME":"HULIANWANG DIGUI-65","OBJECT_ID":"2025-174H","EPOCH":"2026-07-21T05:57:15.147072","CLASSIFICATION_TYPE":"U","MEAN_MOTION":13.24407753,"ECCENTRICITY":0.00017425,"INCLINATION":86.4857,"RA_OF_ASC_NODE":240.2858,"ARG_OF_PERICENTER":100.8551,"MEAN_ANOMALY":259.2779,"EPHEMERIS_TYPE":0,"NORAD_CAT_ID":65171,"ELEMENT_SET_NO":999,"REV_AT_EPOCH":4529,"BSTAR":-0.00003413558,"MEAN_MOTION_DOT":0,"MEAN_MOTION_DDOT":0},{"OBJECT_NAME":"HULIANWANG DIGUI-66","OBJECT_ID":"2025-174J","EPOCH":"2026-07-21T05:46:26.226048","CLASSIFICATION_TYPE":"U","MEAN_MOTION":13.24407464,"ECCENTRICITY":0.00018859,"INCLINATION":86.4893,"RA_OF_ASC_NODE":240.4013,"ARG_OF_PERICENTER":102.7031,"MEAN_ANOMALY":257.4314,"EPHEMERIS_TYPE":0,"NORAD_CAT_ID":65172,"ELEMENT_SET_NO":999,"REV_AT_EPOCH":4529,"BSTAR":0.000001069974,"MEAN_MOTION_DOT":1.5e-7,"MEAN_MOTION_DDOT":0},{"OBJECT_NAME":"HULIANWANG DIGUI-67","OBJECT_ID":"2025-174K","EPOCH":"2026-07-21T06:08:08.266272","CLASSIFICATION_TYPE":"U","MEAN_MOTION":13.24408957,"ECCENTRICITY":0.0001848,"INCLINATION":86.4904,"RA_OF_ASC_NODE":240.4452,"ARG_OF_PERICENTER":101.1084,"MEAN_ANOMALY":259.0258,"EPHEMERIS_TYPE":0,"NORAD_CAT_ID":65173,"ELEMENT_SET_NO":999,"REV_AT_EPOCH":4526,"BSTAR":0.000002640306,"MEAN_MOTION_DOT":1.6e-7,"MEAN_MOTION_DDOT":0},{"OBJECT_NAME":"HULIANWANG DIGUI-68","OBJECT_ID":"2025-178A","EPOCH":"2026-07-21T06:40:35.342112","CLASSIFICATION_TYPE":"U","MEAN_MOTION":13.244114,"ECCENTRICITY":0.0001964,"INCLINATION":86.4995,"RA_OF_ASC_NODE":2.0148,"ARG_OF_PERICENTER":91.5882,"MEAN_ANOMALY":268.5477,"EPHEMERIS_TYPE":0,"NORAD_CAT_ID":65228,"ELEMENT_SET_NO":999,"REV_AT_EPOCH":4482,"BSTAR":0.00001666116,"MEAN_MOTION_DOT":2.2e-7,"MEAN_MOTION_DDOT":0},{"OBJECT_NAME":"HULIANWANG DIGUI-69","OBJECT_ID":"2025-178B","EPOCH":"2026-07-21T06:29:51.704448","CLASSIFICATION_TYPE":"U","MEAN_MOTION":13.24412787,"ECCENTRICITY":0.0001816,"INCLINATION":86.5009,"RA_OF_ASC_NODE":2.0792,"ARG_OF_PERICENTER":92.2227,"MEAN_ANOMALY":267.9115,"EPHEMERIS_TYPE":0,"NORAD_CAT_ID":65229,"ELEMENT_SET_NO":999,"REV_AT_EPOCH":4482,"BSTAR":9.88697e-7,"MEAN_MOTION_DOT":1.5e-7,"MEAN_MOTION_DDOT":0},{"OBJECT_NAME":"HULIANWANG DIGUI-70","OBJECT_ID":"2025-178C","EPOCH":"2026-07-21T06:18:58.695840","CLASSIFICATION_TYPE":"U","MEAN_MOTION":13.24411892,"ECCENTRICITY":0.00019542,"INCLINATION":86.4955,"RA_OF_ASC_NODE":1.8689,"ARG_OF_PERICENTER":89.9812,"MEAN_ANOMALY":270.1546,"EPHEMERIS_TYPE":0,"NORAD_CAT_ID":65230,"ELEMENT_SET_NO":999,"REV_AT_EPOCH":4482,"BSTAR":0.000019821067,"MEAN_MOTION_DOT":2.3e-7,"MEAN_MOTION_DDOT":0},{"OBJECT_NAME":"HULIANWANG DIGUI-71","OBJECT_ID":"2025-178D","EPOCH":"2026-07-21T06:08:07.509408","CLASSIFICATION_TYPE":"U","MEAN_MOTION":13.24411604,"ECCENTRICITY":0.00019408,"INCLINATION":86.5013,"RA_OF_ASC_NODE":2.0637,"ARG_OF_PERICENTER":90.3594,"MEAN_ANOMALY":269.7762,"EPHEMERIS_TYPE":0,"NORAD_CAT_ID":65231,"ELEMENT_SET_NO":999,"REV_AT_EPOCH":4482,"BSTAR":0.000050547635,"MEAN_MOTION_DOT":3.6e-7,"MEAN_MOTION_DDOT":0},{"OBJECT_NAME":"HULIANWANG DIGUI-72","OBJECT_ID":"2025-178E","EPOCH":"2026-07-21T05:57:15.031296","CLASSIFICATION_TYPE":"U","MEAN_MOTION":13.24411099,"ECCENTRICITY":0.00019468,"INCLINATION":86.4996,"RA_OF_ASC_NODE":2.0017,"ARG_OF_PERICENTER":90.8077,"MEAN_ANOMALY":269.328,"EPHEMERIS_TYPE":0,"NORAD_CAT_ID":65232,"ELEMENT_SET_NO":999,"REV_AT_EPOCH":4482,"BSTAR":0.000092166251,"MEAN_MOTION_DOT":5.4e-7,"MEAN_MOTION_DDOT":0},{"OBJECT_NAME":"HULIANWANG DIGUI-73","OBJECT_ID":"2025-187A","EPOCH":"2026-07-21T06:27:08.249472","CLASSIFICATION_TYPE":"U","MEAN_MOTION":13.29323695,"ECCENTRICITY":0.0000067,"INCLINATION":50.0056,"RA_OF_ASC_NODE":83.6485,"ARG_OF_PERICENTER":12.7602,"MEAN_ANOMALY":347.3272,"EPHEMERIS_TYPE":0,"NORAD_CAT_ID":65305,"ELEMENT_SET_NO":999,"REV_AT_EPOCH":4423,"BSTAR":0.000034708161,"MEAN_MOTION_DOT":-0.00000108,"MEAN_MOTION_DDOT":0},{"OBJECT_NAME":"HULIANWANG DIGUI-74","OBJECT_ID":"2025-187B","EPOCH":"2026-07-21T04:14:57.958944","CLASSIFICATION_TYPE":"U","MEAN_MOTION":13.2932179,"ECCENTRICITY":0.00000841,"INCLINATION":50.0098,"RA_OF_ASC_NODE":83.9414,"ARG_OF_PERICENTER":357.9082,"MEAN_ANOMALY":2.179,"EPHEMERIS_TYPE":0,"NORAD_CAT_ID":65306,"ELEMENT_SET_NO":999,"REV_AT_EPOCH":4422,"BSTAR":0.000041184039,"MEAN_MOTION_DOT":-0.00000105,"MEAN_MOTION_DDOT":0},{"OBJECT_NAME":"HULIANWANG DIGUI-75","OBJECT_ID":"2025-187C","EPOCH":"2026-07-21T05:39:11.022336","CLASSIFICATION_TYPE":"U","MEAN_MOTION":13.29323055,"ECCENTRICITY":0.00000666,"INCLINATION":50.009,"RA_OF_ASC_NODE":83.565,"ARG_OF_PERICENTER":16.705,"MEAN_ANOMALY":343.3824,"EPHEMERIS_TYPE":0,"NORAD_CAT_ID":65307,"ELEMENT_SET_NO":999,"REV_AT_EPOCH":4423,"BSTAR":0.000037342426,"MEAN_MOTION_DOT":-0.00000107,"MEAN_MOTION_DDOT":0}]}
