HULIANWANG DIGUI-60     
1 65166U 25174C   26202.27837674  .00000051  00000+0  85677-4 0  9991
2 65166  86.4932 240.4891 0001893 102.5779 257.5567 13.24407304 45305
HULIANWANG DIGUI-61     
1 65167U 25174D   26202.28594750  .00000054  00000+0  90746-4 0  9994
2 65167  86.4941 240.5204 0001707 102.2897 257.8428 13.24407932 45303
HULIANWANG DIGUI-62     
1 65168U 25174E   26202.29337753  .00000048  00000+0  77053-4 0  9993
2 65168  86.4883 240.3295 0001818 105.5756 254.5579 13.24409523 45309
HULIANWANG DIGUI-63     
1 65169U 25174F   26202.22533534  .00000031  00000+0  38469-4 0  9992
2 65169  86.4935 240.5318 0001715 106.3108 253.8215 13.24403816 45298
HULIANWANG DIGUI-64     
1 65170U 25174G   26202.23303384  .00000013  00000+0 -33216-5 0  9990
2 65170  86.4894 240.4000 0001881 104.6404 255.4939 13.24407755 45292
HULIANWANG DIGUI-65     
1 65171U 25174H   26202.24809198  .00000000  00000+0 -34136-4 0  9993
2 65171  86.4857 240.2858 0001742 100.8551 259.2779 13.24407753 45290
HULIANWANG DIGUI-66     
1 65172U 25174J   26202.24058132  .00000015  00000+0  10700-5 0  9995
2 65172  86.4893 240.4013 0001885 102.7031 257.4314 13.24407464 45292
HULIANWANG DIGUI-67     
1 65173U 25174K   26202.25565123  .00000016  00000+0  26403-5 0  9998
2 65173  86.4904 240.4452 0001848 101.1084 259.0258 13.24408957 45263
HULIANWANG DIGUI-68     
1 65228U 25178A   26202.27818683  .00000022  00000+0  16661-4 0  9998
2 65228  86.4995   2.0148 0001964  91.5882 268.5477 13.24411400 44821
HULIANWANG DIGUI-69     
1 65229U 25178B   26202.27073732  .00000015  00000+0  98870-6 0  9993
2 65229  86.5009   2.0792 0001816  92.2227 267.9115 13.24412787 44822
HULIANWANG DIGUI-70     
1 65230U 25178C   26202.26317935  .00000023  00000+0  19821-4 0  9996
2 65230  86.4955   1.8689 0001954  89.9812 270.1546 13.24411892 44821
HULIANWANG DIGUI-71     
1 65231U 25178D   26202.25564247  .00000036  00000+0  50548-4 0  9991
2 65231  86.5013   2.0637 0001940  90.3594 269.7762 13.24411604 44827
HULIANWANG DIGUI-72     
1 65232U 25178E   26202.24809064  .00000054  00000+0  92166-4 0  9992
2 65232  86.4996   2.0017 0001946  90.8077 269.3280 13.24411099 44825
HULIANWANG DIGUI-73     
1 65305U 25187A   26202.26884548 -.00000108  00000+0  34708-4 0  9994
2 65305  50.0056  83.6485 0000067  12.7602 347.3272 13.29323695 44236
HULIANWANG DIGUI-74     
1 65306U 25187B   26202.17705971 -.00000105  00000+0  41184-4 0  9990
2 65306  50.0098  83.9414 0000084 357.9082   2.1790 13.29321790 44227
HULIANWANG DIGUI-75     
1 65307U 25187C   26202.23554424 -.00000107  00000+0  37342-4 0  9996
2 65307  50.0090  83.5650 0000066  16.7050 343.3824 13.29323055 44238
